SL-14 R/B               
1 16792U 86046B   25324.35080028  .00000521  00000+0  57472-4 0  9997
2 16792  82.4825 183.4574 0021946 226.9972 132.9405 14.85452790110176
SL-14 R/B               
1 16882U 86055B   25324.74551867  .00000638  00000+0  70965-4 0  9995
2 16882  82.5219 229.0364 0018410 337.3222  38.9610 14.85498440103194
AJISAI (EGS)            
1 16908U 86061A   25324.76180221 -.00000111  00000+0 -95587-4 0  9990
2 16908  50.0100  68.2962 0011217  10.6500 161.2958 12.44514112454436
COSMOS 1812             
1 17295U 87003A   25324.46453990  .00074843  00000+0  59774-3 0  9998
2 17295  82.4868 316.0410 0006023 121.5601 238.6250 15.70832921127154
SL-14 R/B               
1 17567U 87024B   25324.62588038  .00000524  00000+0  57115-4 0  9996
2 17567  82.5293 195.2263 0016730 261.6576  98.2744 14.85993591 71933
COSMOS 1833             
1 17589U 87027A   25324.34774649 -.00000110  00000+0 -33010-4 0  9998
2 17589  70.9134 195.8490 0021582   3.2410 356.8847 14.13018396994863
SL-16 R/B               
1 17590U 87027B   25324.49752194 -.00000082  00000+0 -16780-4 0  9990
2 17590  70.9999 146.5862 0007254 282.6074  77.4239 14.17146929999919
SL-14 R/B               
1 17912U 87038B   25324.63222146  .00000589  00000+0  65708-4 0  9999
2 17912  82.5035  39.5202 0019832 161.0150 199.1810 14.85231141 63045
COSMOS 1844             
1 17973U 87041A   25324.71076013  .00000103  00000+0  78651-4 0  9992
2 17973  70.8995 264.0317 0031188 190.9375 169.1072 14.14527131988173
SL-14 R/B               
1 18153U 87055B   25324.76272271  .00000599  00000+0  66336-4 0  9993
2 18153  82.4985  91.6982 0021084  17.6477 342.5466 14.85487254 53767
COSMOS 1867             
1 18187U 87060A   25324.52631399 -.00000001  00000+0  37187-4 0  9991
2 18187  65.0102 252.4072 0013684 268.8853  91.0664 14.31481148  4314
COSMOS 1892             
1 18421U 87088A   25324.69379773  .00513941  12665-3  67180-3 0  9995
2 18421  82.4663  68.6026 0005836 270.9538  89.1075 16.06938108 87783
